STARLINK-5419           
1 54854U 22177AL  24215.28086280  .00000463  00000+0  49336-4 0  9994
2 54854  43.0038  55.9542 0001089 285.6776  74.3947 15.02534309 89198
STARLINK-5416           
1 54855U 22177AM  24215.28307859  .00003044  00000+0  24027-3 0  9990
2 54855  43.0024  55.9744 0001405 276.3677  83.7005 15.02542838 89192
STARLINK-5086           
1 54856U 22177AN  24215.59548738  .00003840  00000+0  29918-3 0  9996
2 54856  43.0050  54.0173 0001429 270.6686  89.3993 15.02541170 89243
STARLINK-5078           
1 54857U 22177AP  24215.54008889  .00003017  00000+0  23815-3 0  9996
2 54857  43.0056  54.4668 0001668 266.2620  93.8032 15.02560311 89238
STARLINK-5407           
1 54858U 22177AQ  24215.54233297  .00001187  00000+0  10295-3 0  9994
2 54858  42.9995  54.4748 0001257 279.9989  80.0712 15.02532690 89233
STARLINK-5409           
1 54859U 22177AR  24215.59881688  .00004257  00000+0  32996-3 0  9996
2 54859  43.0033  54.0434 0000821 258.6365 101.4385 15.02543734 89241
STARLINK-5406           
1 54860U 22177AS  24215.52679239  .00002042  00000+0  16620-3 0  9994
2 54860  43.0043  54.3609 0001277 275.7428  84.3269 15.02535840 89235
STARLINK-5400           
1 54861U 22177AT  24215.60992233  .00001506  00000+0  12651-3 0  9990
2 54861  43.0020  54.1242 0001137 268.0360  92.0352 15.02531424 89241
STARLINK-5403           
1 54862U 22177AU  24214.90197123  .00010787  00000+0  81194-3 0  9997
2 54862  43.0015  58.2897 0001107 282.0468  78.0250 15.02554659 88154
STARLINK-5405           
1 54863U 22177AV  24215.60216108 -.00001302  00000+0 -81380-4 0  9994
2 54863  43.0034  54.0673 0001283 278.5109  81.5588 15.02525731 89242
STARLINK-5359           
1 54864U 22177AW  24215.58997181 -.00003137  00000+0 -21742-3 0  9992
2 54864  43.0028  53.9750 0000706 289.5020  70.5746 15.02507197 89243
STARLINK-5411           
1 54865U 22177AX  24215.60547248  .00001553  00000+0  13005-3 0  9992
2 54865  43.0066  54.0926 0001574 263.9772  96.0891 15.02537355 89240
STARLINK-5398           
1 54866U 22177AY  24215.57994580  .00004497  00000+0  34762-3 0  9997
2 54866  43.0040  53.9018 0001353 263.8503  96.2185 15.02548087 89241
STARLINK-5396           
1 54867U 22177AZ  24215.59215883  .00004448  00000+0  34419-3 0  9997
2 54867  43.0041  53.9933 0001292 277.9190  82.1506 15.02528700 89240
STARLINK-5379           
1 54868U 22177BA  24215.57549821 -.00000621  00000+0 -30855-4 0  9990
2 54868  43.0057  53.8664 0001265 269.9498  90.1200 15.02559641 89248
STARLINK-5402           
1 54869U 22177BB  24215.58549739 -.00000550  00000+0 -25652-4 0  9990
2 54869  43.0030  53.9475 0001005 280.5503  79.5226 15.02551736 89245
STARLINK-5401           
1 54870U 22177BC  24215.57772749  .00001125  00000+0  98359-4 0  9991
2 54870  43.0067  53.8849 0001340 276.6804  83.3886 15.02539754 88142
STARLINK-5397           
1 54871U 22177BD  24215.58660764  .00004561  00000+0  35246-3 0  9998
2 54871  43.0053  53.9542 0001774 268.8491  91.2148 15.02542023 88147
STARLINK-5390           
1 54872U 22177BE  24214.97166652  .00002629  00000+0  20963-3 0  9991
2 54872  43.0014  57.1015 0001328 246.0962 113.9741 15.02533529 89156
STARLINK-5091           
1 54873U 22177BF  24215.57217626  .00001520  00000+0  12758-3 0  9999
2 54873  43.0031  53.8395 0001427 262.7591  97.3090 15.02544285 89246
STARLINK-5277           
1 55269U 23010A   24215.60514172  .00001154  00000+0  10448-3 0  9993
2 55269  70.0012  77.2279 0002820 272.9704  87.1132 14.98323634 85576
STARLINK-5301           
1 55270U 23010B   24215.61766231  .00001377  00000+0  12316-3 0  9994
2 55270  69.9993  77.2679 0002639 272.7022  87.3835 14.98324523 85295
STARLINK-5306           
1 55271U 23010C   24215.60931601  .00000927  00000+0  85497-4 0  9990
2 55271  69.9997  77.2390 0002995 270.9435  89.1381 14.98320316 85295
STARLINK-5310           
1 55272U 23010D   24215.62197764  .00002629  00000+0  22804-3 0  9990
2 55272  70.0024  76.8912 0002592 270.1032  89.9830 14.98327840 85301
STARLINK-5291           
1 55273U 23010E   24215.63433645  .00000614  00000+0  59243-4 0  9993
2 55273  69.9997  76.9299 0002587 268.0395  92.0468 14.98321989 85309
STARLINK-5236           
1 55274U 23010F   24215.59656954  .00000506  00000+0  50235-4 0  9991
2 55274  70.0025  57.3267 0002825 263.4620  96.6217 14.98328956 85783
STARLINK-5260           
1 55275U 23010G   24215.58838721  .00000792  00000+0  74147-4 0  9990
2 55275  70.0007  57.3000 0003101 278.3886  81.6921 14.98324172 85788
STARLINK-5261           
1 55276U 23010H   24215.58822102  .00001902  00000+0  16717-3 0  9999
2 55276  70.0012  57.3005 0002846 265.4963  94.5871 14.98323114 85779
STARLINK-5299           
1 55277U 23010J   24215.59679384  .00001399  00000+0  12502-3 0  9991
2 55277  70.0008  77.1970 0002747 258.8155 101.2695 14.98324543 85299
STARLINK-5289           
1 55278U 23010K   24215.58009560  .00001441  00000+0  12857-3 0  9995
2 55278  70.0007  77.1387 0002926 270.6098  89.4726 14.98323773 84989
STARLINK-5323           
1 55279U 23010L   24215.59261822  .00001600  00000+0  14189-3 0  9995
2 55279  69.9994  77.1825 0003017 270.7375  89.3438 14.98322907 85292
STARLINK-5331           
1 55280U 23010M   24215.37162500  .00001815  00000+0  15983-3 0  9997
2 55280  69.9999  77.6092 0002989 277.0942  82.9877 14.98338814 85253
STARLINK-5298           
1 55281U 23010N   24215.58844378  .00002459  00000+0  21378-3 0  9991
2 55281  70.0004  77.1651 0002654 270.3364  89.7490 14.98332240 85289
STARLINK-5330           
1 55282U 23010P   24215.63032494  .00000532  00000+0  52326-4 0  9994
2 55282  70.0011  76.9073 0002562 272.1245  87.9621 14.98336709 85290
STARLINK-5317           
1 55283U 23010Q   24215.31722465  .00002785  00000+0  24103-3 0  9997
2 55283  70.0029  77.8227 0002872 274.9009  85.1822 14.98338923 85241
STARLINK-5337           
1 55284U 23010R   24215.63016495  .00001294  00000+0  11628-3 0  9994
2 55284  70.0001  76.9078 0002924 269.7893  90.2931 14.98321675 85296
STARLINK-5332           
1 55285U 23010S   24215.60049633  .00000088  00000+0  15137-4 0  9992
2 55285  70.0002  37.0555 0002959 269.1610  90.9210 14.98323357 87158
STARLINK-5338           
1 55286U 23010T   24215.57987389  .00000798  00000+0  74676-4 0  9999
2 55286  70.0014  57.2681 0002848 273.2218  86.8616 14.98323036 85463
STARLINK-5341           
1 55287U 23010U   24215.59650836  .00000422  00000+0  43140-4 0  9992
2 55287  69.9999  37.3576 0002952 267.1896  92.8925 14.98324317 86267
STARLINK-5311           
1 55288U 23010V   24215.63427693  .00002656  00000+0  23029-3 0  9995
2 55288  69.9996  57.0511 0003398 265.5613  94.5158 14.98330710 85784
STARLINK-5320           
1 55289U 23010W   24215.58403625  .00000336  00000+0  35933-4 0  9990
2 55289  69.9991  57.2798 0002618 264.8269  95.2591 14.98324794 85461
STARLINK-5266           
1 55290U 23010X   24215.57569905  .00000647  00000+0  62055-4 0  9995
2 55290  70.0009  57.2517 0002394 266.0661  94.0224 14.98324505 85477
STARLINK-5327           
1 55291U 23010Y   24215.59239554  .00000931  00000+0  85854-4 0  9990
2 55291  70.0010  57.3092 0002712 269.0523  91.0326 14.98325020 85779
STARLINK-5325           
1 55292U 23010Z   24215.62994314  .00000238  00000+0  27724-4 0  9999
2 55292  69.9989  57.0368 0003120 268.0047  92.0754 14.98316256 85787
STARLINK-5287           
1 55293U 23010AA  24215.63411242 -.00001783  00000+0 -14175-3 0  9998
2 55293  69.9998  57.0531 0002929 269.7210  90.3613 14.98310662 85786
STARLINK-5286           
1 55294U 23010AB  24215.37145894 -.00001237  00000+0 -95863-4 0  9995
2 55294  69.9995  77.6087 0003191 266.3368  93.7426 14.98343893 85250
STARLINK-5293           
1 55295U 23010AC  24215.61349186  .00001344  00000+0  12047-3 0  9992
2 55295  69.9999  77.2536 0002907 268.6095  91.4731 14.98322182 85292
STARLINK-5285           
1 55296U 23010AD  24215.61741528  .00000606  00000+0  58591-4 0  9994
2 55296  70.0023  56.9969 0002472 258.5469 101.5413 14.98320024 86663
STARLINK-5284           
1 55297U 23010AE  24215.62576652 -.00000046  00000+0  39499-5 0  9996
2 55297  70.0005  57.0241 0002996 272.6525  87.4291 14.98320925 85788
STARLINK-5272           
1 55298U 23010AF  24215.60923023  .00002760  00000+0  23911-3 0  9997
2 55298  69.9995  56.9661 0002992 267.4713  92.6103 14.98318698 86667
STARLINK-5270           
1 55299U 23010AG  24215.61324051  .00000358  00000+0  37791-4 0  9998
2 55299  70.0014  56.9834 0002570 261.2906  98.7962 14.98323651 86668
STARLINK-5308           
1 55300U 23010AH  24215.60906652  .00000071  00000+0  13774-4 0  9990
2 55300  70.0000  56.9650 0002973 272.5788  87.5031 14.98323445 85788
STARLINK-5321           
1 55302U 23010AK  24215.62159246 -.00001385  00000+0 -10834-3 0  9997
2 55302  69.9996  57.0053 0003044 266.3360  93.7451 14.98322845 85785
STARLINK-5322           
1 55303U 23010AL  24215.62598710  .00000269  00000+0  30337-4 0  9990
2 55303  70.0013  76.8935 0002656 262.6003  97.4854 14.98327404 85298
STARLINK-5318           
1 55304U 23010AM  24215.60488555  .00001518  00000+0  13498-3 0  9990
2 55304  69.9997  56.9493 0003050 272.2920  87.7889 14.98332375 85786
STARLINK-5316           
1 55305U 23010AN  24215.60074347  .00001026  00000+0  93803-4 0  9994
2 55305  70.0019  57.3414 0002842 267.1157  92.9676 14.98324704 85785
STARLINK-5295           
1 55306U 23010AP  24215.57130331  .00000869  00000+0  80635-4 0  9990
2 55306  70.0003  37.3600 0002957 270.7857  89.2963 14.98325506 86272
STARLINK-5288           
1 55307U 23010AQ  24215.57547872  .00000386  00000+0  40134-4 0  9997
2 55307  70.0000  37.3742 0003077 268.0171  92.0636 14.98323426 85952
STARLINK-5292           
1 55308U 23010AR  24215.62153312 -.00000304  00000+0 -17686-4 0  9994
2 55308  70.0008  37.1357 0002833 264.4746  95.6089 14.98321693 87157
